{
  "type": "FeatureCollection",
  "features": [
    {
      "type": "Feature",
      "properties": {
        "norad_id": 66449,
        "name": "STARLINK-34720",
        "group": "last-30-days",
        "lat": 34.34378020962706,
        "lon": 140.22564389131134,
        "alt_km": 410.63691461902545,
        "timestamp": "2025-12-04T21:36:14.651730+00:00",
        "meta_object_name": "STARLINK-34720",
        "meta_object_id": "2025-259AD",
        "meta_epoch": "2025-12-04T14:00:01.000224",
        "meta_mean_motion": 15.50573163,
        "meta_eccentricity": 0.00014776,
        "meta_inclination": 43.0003,
        "meta_ra_of_asc_node": 94.9206,
        "meta_arg_of_pericenter": 261.2794,
        "meta_mean_anomaly": 183.9799,
        "meta_ephemeris_type": 0,
        "meta_classification_type": "U",
        "meta_norad_cat_id": 66449,
        "meta_element_set_no": 999,
        "meta_rev_at_epoch": 486,
        "meta_bstar": -0.0014895031,
        "meta_mean_motion_dot": -0.00086744,
        "meta_mean_motion_ddot": 0,
        "tle_line1": "1 66449U 25259AD  25338.58334491 -.00086744  00000+0 -14895-2 0  9999",
        "tle_line2": "2 66449  43.0003  94.9206 0001477 261.2794 183.9799 15.50573163  4861"
      },
      "geometry": {
        "type": "Point",
        "coordinates": [
          140.22564389131134,
          34.34378020962706
        ]
      }
    },
    {
      "type": "Feature",
      "properties": {
        "norad_id": 66450,
        "name": "STARLINK-35334",
        "group": "last-30-days",
        "lat": 35.219665384008565,
        "lon": 142.31055935752693,
        "alt_km": 410.3335571847383,
        "timestamp": "2025-12-04T21:36:14.651740+00:00",
        "meta_object_name": "STARLINK-35334",
        "meta_object_id": "2025-259AE",
        "meta_epoch": "2025-12-04T14:00:01.000224",
        "meta_mean_motion": 15.50585412,
        "meta_eccentricity": 0.00016284,
        "meta_inclination": 43.0002,
        "meta_ra_of_asc_node": 94.9145,
        "meta_arg_of_pericenter": 280.9011,
        "meta_mean_anomaly": 166.2615,
        "meta_ephemeris_type": 0,
        "meta_classification_type": "U",
        "meta_norad_cat_id": 66450,
        "meta_element_set_no": 999,
        "meta_rev_at_epoch": 496,
        "meta_bstar": -0.0013605951,
        "meta_mean_motion_dot": -0.00079376,
        "meta_mean_motion_ddot": 0,
        "tle_line1": "1 66450U 25259AE  25338.58334491 -.00079376  00000+0 -13606-2 0  9993",
        "tle_line2": "2 66450  43.0002  94.9145 0001628 280.9011 166.2615 15.50585412  4964"
      },
      "geometry": {
        "type": "Point",
        "coordinates": [
          142.31055935752693,
          35.219665384008565
        ]
      }
    },
    {
      "type": "Feature",
      "properties": {
        "norad_id": 66454,
        "name": "VIASAT-3 F2",
        "group": "last-30-days",
        "lat": 1.0596428820468264,
        "lon": -56.01123352153882,
        "alt_km": 23642.62208356062,
        "timestamp": "2025-12-04T21:36:14.651755+00:00",
        "meta_object_name": "VIASAT-3 F2",
        "meta_object_id": "2025-261A",
        "meta_epoch": "2025-12-04T01:07:27.782112",
        "meta_mean_motion": 2.28102609,
        "meta_eccentricity": 0.23421394,
        "meta_inclination": 5.5724,
        "meta_ra_of_asc_node": 293.1352,
        "meta_arg_of_pericenter": 184.2254,
        "meta_mean_anomaly": 209.6829,
        "meta_ephemeris_type": 0,
        "meta_classification_type": "U",
        "meta_norad_cat_id": 66454,
        "meta_element_set_no": 999,
        "meta_rev_at_epoch": 45,
        "meta_bstar": 0,
        "meta_mean_motion_dot": -5.6e-07,
        "meta_mean_motion_ddot": 0,
        "tle_line1": "1 66454U 25261A   25338.04684933 -.00000056  00000+0  00000+0 0  9999",
        "tle_line2": "2 66454   5.5724 293.1352 2342139 184.2254 209.6829  2.28102609   450"
      },
      "geometry": {
        "type": "Point",
        "coordinates": [
          -56.01123352153882,
          1.0596428820468264
        ]
      }
    },
    {
      "type": "Feature",
      "properties": {
        "norad_id": 66455,
        "name": "ATLAS 5 CENTAUR R/B",
        "group": "last-30-days",
        "lat": 0.7029078487177922,
        "lon": -61.05373614340936,
        "alt_km": 23657.059337689418,
        "timestamp": "2025-12-04T21:36:14.651767+00:00",
        "meta_object_name": "ATLAS 5 CENTAUR R/B",
        "meta_object_id": "2025-261B",
        "meta_epoch": "2025-12-04T12:52:51.619584",
        "meta_mean_motion": 2.28259385,
        "meta_eccentricity": 0.23296099,
        "meta_inclination": 6.1565,
        "meta_ra_of_asc_node": 292.4364,
        "meta_arg_of_pericenter": 184.835,
        "meta_mean_anomaly": 244.04,
        "meta_ephemeris_type": 0,
        "meta_classification_type": "U",
        "meta_norad_cat_id": 66455,
        "meta_element_set_no": 999,
        "meta_rev_at_epoch": 46,
        "meta_bstar": 0,
        "meta_mean_motion_dot": -5.9e-07,
        "meta_mean_motion_ddot": 0,
        "tle_line1": "1 66455U 25261B   25338.53670856 -.00000059  00000+0  00000+0 0  9996",
        "tle_line2": "2 66455   6.1565 292.4364 2329609 184.8350 244.0400  2.28259385   469"
      },
      "geometry": {
        "type": "Point",
        "coordinates": [
          -61.05373614340936,
          0.7029078487177922
        ]
      }
    },
    {
      "type": "Feature",
      "properties": {
        "norad_id": 66456,
        "name": "STARLINK-35643",
        "group": "last-30-days",
        "lat": 42.91959990145,
        "lon": -149.31908085155357,
        "alt_km": 401.7148553829966,
        "timestamp": "2025-12-04T21:36:14.651778+00:00",
        "meta_object_name": "STARLINK-35643",
        "meta_object_id": "2025-262A",
        "meta_epoch": "2025-12-04T14:00:01.000224",
        "meta_mean_motion": 15.54713577,
        "meta_eccentricity": 0.00013488,
        "meta_inclination": 42.9996,
        "meta_ra_of_asc_node": 118.8474,
        "meta_arg_of_pericenter": 285.3682,
        "meta_mean_anomaly": 192.8135,
        "meta_ephemeris_type": 0,
        "meta_classification_type": "U",
        "meta_norad_cat_id": 66456,
        "meta_element_set_no": 999,
        "meta_rev_at_epoch": 432,
        "meta_bstar": -0.036155491,
        "meta_mean_motion_dot": -0.02180067,
        "meta_mean_motion_ddot": 0,
        "tle_line1": "1 66456U 25262A   25338.58334491 -.02180067  00000+0 -36155-1 0  9998",
        "tle_line2": "2 66456  42.9996 118.8474 0001348 285.3682 192.8135 15.54713577  4324"
      },
      "geometry": {
        "type": "Point",
        "coordinates": [
          -149.31908085155357,
          42.91959990145
        ]
      }
    },
    {
      "type": "Feature",
      "properties": {
        "norad_id": 66457,
        "name": "STARLINK-35466",
        "group": "last-30-days",
        "lat": 42.63190081608119,
        "lon": -144.11256627829323,
        "alt_km": 401.6729103596199,
        "timestamp": "2025-12-04T21:36:14.651788+00:00",
        "meta_object_name": "STARLINK-35466",
        "meta_object_id": "2025-262B",
        "meta_epoch": "2025-12-04T14:00:01.000224",
        "meta_mean_motion": 15.54714959,
        "meta_eccentricity": 0.0001187,
        "meta_inclination": 42.9994,
        "meta_ra_of_asc_node": 118.8375,
        "meta_arg_of_pericenter": 284.7277,
        "meta_mean_anomaly": 197.289,
        "meta_ephemeris_type": 0,
        "meta_classification_type": "U",
        "meta_norad_cat_id": 66457,
        "meta_element_set_no": 999,
        "meta_rev_at_epoch": 432,
        "meta_bstar": -0.036199213,
        "meta_mean_motion_dot": -0.02182385,
        "meta_mean_motion_ddot": 0,
        "tle_line1": "1 66457U 25262B   25338.58334491 -.02182385  00000+0 -36199-1 0  9992",
        "tle_line2": "2 66457  42.9994 118.8375 0001187 284.7277 197.2890 15.54714959  4329"
      },
      "geometry": {
        "type": "Point",
        "coordinates": [
          -144.11256627829323,
          42.63190081608119
        ]
      }
    },
    {
      "type": "Feature",
      "properties": {
        "norad_id": 66458,
        "name": "STARLINK-35684",
        "group": "last-30-days",
        "lat": 42.805373001575,
        "lon": -146.7104470816185,
        "alt_km": 401.6636201024694,
        "timestamp": "2025-12-04T21:36:14.651800+00:00",
        "meta_object_name": "STARLINK-35684",
        "meta_object_id": "2025-262C",
        "meta_epoch": "2025-12-04T14:00:01.000224",
        "meta_mean_motion": 15.54715199,
        "meta_eccentricity": 0.00012233,
        "meta_inclination": 42.9995,
        "meta_ra_of_asc_node": 118.8421,
        "meta_arg_of_pericenter": 284.121,
        "meta_mean_anomaly": 195.9776,
        "meta_ephemeris_type": 0,
        "meta_classification_type": "U",
        "meta_norad_cat_id": 66458,
        "meta_element_set_no": 999,
        "meta_rev_at_epoch": 432,
        "meta_bstar": -0.036186937,
        "meta_mean_motion_dot": -0.02181773,
        "meta_mean_motion_ddot": 0,
        "tle_line1": "1 66458U 25262C   25338.58334491 -.02181773  00000+0 -36187-1 0  9990",
        "tle_line2": "2 66458  42.9995 118.8421 0001223 284.1210 195.9776 15.54715199  4320"
      },
      "geometry": {
        "type": "Point",
        "coordinates": [
          -146.7104470816185,
          42.805373001575
        ]
      }
    }
  ]
}